{"type": "FeatureCollection", "features": [ {"type": "Feature", "properties": {"norad_id": 66758, "name": "TRANSPORTER-15CW", "group": "last-30-days", "lat": -14.16699831658002, "lon": 74.58818843761694, "alt_km": 517.0770325076783, "timestamp": "2025-12-27T03:58:42.931791+00:00", "meta": {"OBJECT_NAME": "TRANSPORTER-15CW", "OBJECT_ID": "2025-276CW", "EPOCH": "2025-12-26T18:33:00.041760", "MEAN_MOTION": 15.18128113, "ECCENTRICITY": 0.0001517, "INCLINATION": 97.4386, "RA_OF_ASC_NODE": 72.312, "ARG_OF_PERICENTER": 134.0946, "MEAN_ANOMALY": 226.0413, "EPHEMERIS_TYPE": 0, "CLASSIFICATION_TYPE": "U", "NORAD_CAT_ID": 66758, "ELEMENT_SET_NO": 999, "REV_AT_EPOCH": 425, "BSTAR": 0.00051393, "MEAN_MOTION_DOT": 0.00010428, "MEAN_MOTION_DDOT": 0}, "tle": {"line1": "1 66758U 25276CW  25360.77291715  .00010428  00000+0  51393-3 0  9997", "line2": "2 66758  97.4386  72.3120 0001517 134.0946 226.0413 15.18128113  4257"}}, "geometry": {"type": "Point", "coordinates": [74.58818843761694, -14.16699831658002]}}, {"type": "Feature", "properties": {"norad_id": 66759, "name": "TRANSPORTER-15CX", "group": "last-30-days", "lat": -3.0679164976845525, "lon": 73.1048775134357, "alt_km": 515.4809105382419, "timestamp": "2025-12-27T03:58:42.931800+00:00", "meta": {"OBJECT_NAME": "TRANSPORTER-15CX", "OBJECT_ID": "2025-276CX", "EPOCH": "2025-12-26T16:55:11.881632", "MEAN_MOTION": 15.18279805, "ECCENTRICITY": 0.0002033, "INCLINATION": 97.4401, "RA_OF_ASC_NODE": 72.2504, "ARG_OF_PERICENTER": 131.7673, "MEAN_ANOMALY": 228.3735, "EPHEMERIS_TYPE": 0, "CLASSIFICATION_TYPE": "U", "NORAD_CAT_ID": 66759, "ELEMENT_SET_NO": 999, "REV_AT_EPOCH": 424, "BSTAR": -0.00010422, "MEAN_MOTION_DOT": -2.2e-05, "MEAN_MOTION_DDOT": 0}, "tle": {"line1": "1 66759U 25276CX  25360.70499863 -.00002200  00000+0 -10422-3 0  9994", "line2": "2 66759  97.4401  72.2504 0002033 131.7673 228.3735 15.18279805  4242"}}, "geometry": {"type": "Point", "coordinates": [73.1048775134357, -3.0679164976845525]}}, {"type": "Feature", "properties": {"norad_id": 66760, "name": "TRANSPORTER-15CY", "group": "last-30-days", "lat": -1.4896412042405058, "lon": 72.90036044131277, "alt_km": 514.8847533449552, "timestamp": "2025-12-27T03:58:42.931809+00:00", "meta": {"OBJECT_NAME": "TRANSPORTER-15CY", "OBJECT_ID": "2025-276CY", "EPOCH": "2025-12-26T16:54:45.628128", "MEAN_MOTION": 15.18234665, "ECCENTRICITY": 0.0001727, "INCLINATION": 97.439, "RA_OF_ASC_NODE": 72.2523, "ARG_OF_PERICENTER": 112.3838, "MEAN_ANOMALY": 247.7579, "EPHEMERIS_TYPE": 0, "CLASSIFICATION_TYPE": "U", "NORAD_CAT_ID": 66760, "ELEMENT_SET_NO": 999, "REV_AT_EPOCH": 424, "BSTAR": 0.00034387, "MEAN_MOTION_DOT": 6.973e-05, "MEAN_MOTION_DDOT": 0}, "tle": {"line1": "1 66760U 25276CY  25360.70469477  .00006973  00000+0  34387-3 0  9999", "line2": "2 66760  97.4390  72.2523 0001727 112.3838 247.7579 15.18234665  4245"}}, "geometry": {"type": "Point", "coordinates": [72.90036044131277, -1.4896412042405058]}}, {"type": "Feature", "properties": {"norad_id": 66761, "name": "TRANSPORTER-15CZ", "group": "last-30-days", "lat": 16.890984781189356, "lon": 70.43942667912405, "alt_km": 511.0764057637516, "timestamp": "2025-12-27T03:58:42.931819+00:00", "meta": {"OBJECT_NAME": "TRANSPORTER-15CZ", "OBJECT_ID": "2025-276CZ", "EPOCH": "2025-12-26T18:24:54.332064", "MEAN_MOTION": 15.18561605, "ECCENTRICITY": 0.0001736, "INCLINATION": 97.4389, "RA_OF_ASC_NODE": 72.3212, "ARG_OF_PERICENTER": 121.6895, "MEAN_ANOMALY": 238.4509, "EPHEMERIS_TYPE": 0, "CLASSIFICATION_TYPE": "U", "NORAD_CAT_ID": 66761, "ELEMENT_SET_NO": 999, "REV_AT_EPOCH": 425, "BSTAR": 0.00055772, "MEAN_MOTION_DOT": 0.00011466, "MEAN_MOTION_DDOT": 0}, "tle": {"line1": "1 66761U 25276CZ  25360.76729551  .00011466  00000+0  55772-3 0  9992", "line2": "2 66761  97.4389  72.3212 0001736 121.6895 238.4509 15.18561605  4254"}}, "geometry": {"type": "Point", "coordinates": [70.43942667912405, 16.890984781189356]}}, {"type": "Feature", "properties": {"norad_id": 66762, "name": "HYDROGNSS-1", "group": "last-30-days", "lat": -82.19211559783761, "lon": 145.0387374593457, "alt_km": 520.7603896909604, "timestamp": "2025-12-27T03:58:42.931828+00:00", "meta": {"OBJECT_NAME": "HYDROGNSS-1", "OBJECT_ID": "2025-276DA", "EPOCH": "2025-12-26T10:57:15.799968", "MEAN_MOTION": 15.17329748, "ECCENTRICITY": 0.0001034, "INCLINATION": 97.4401, "RA_OF_ASC_NODE": 71.976, "ARG_OF_PERICENTER": 229.4074, "MEAN_ANOMALY": 130.7069, "EPHEMERIS_TYPE": 0, "CLASSIFICATION_TYPE": "U", "NORAD_CAT_ID": 66762, "ELEMENT_SET_NO": 999, "REV_AT_EPOCH": 420, "BSTAR": 0.00026914, "MEAN_MOTION_DOT": 5.302e-05, "MEAN_MOTION_DDOT": 0}, "tle": {"line1": "1 66762U 25276DA  25360.45643287  .00005302  00000+0  26914-3 0  9998", "line2": "2 66762  97.4401  71.9760 0001034 229.4074 130.7069 15.17329748  4209"}}, "geometry": {"type": "Point", "coordinates": [145.0387374593457, -82.19211559783761]}}, {"type": "Feature", "properties": {"norad_id": 66763, "name": "HYDROGNSS-2", "group": "last-30-days", "lat": -73.00603136895145, "lon": 97.99965620762788, "alt_km": 520.4394517106821, "timestamp": "2025-12-27T03:58:42.931837+00:00", "meta": {"OBJECT_NAME": "HYDROGNSS-2", "OBJECT_ID": "2025-276DB", "EPOCH": "2025-12-26T01:24:10.974240", "MEAN_MOTION": 15.17451017, "ECCENTRICITY": 0.00016493, "INCLINATION": 97.4407, "RA_OF_ASC_NODE": 71.5946, "ARG_OF_PERICENTER": 220.2496, "MEAN_ANOMALY": 139.8616, "EPHEMERIS_TYPE": 0, "CLASSIFICATION_TYPE": "U", "NORAD_CAT_ID": 66763, "ELEMENT_SET_NO": 999, "REV_AT_EPOCH": 414, "BSTAR": 0.00018696789, "MEAN_MOTION_DOT": 3.675e-05, "MEAN_MOTION_DDOT": 0}, "tle": {"line1": "1 66763U 25276DB  25360.05846035  .00003675  00000+0  18697-3 0  9991", "line2": "2 66763  97.4407  71.5946 0001649 220.2496 139.8616 15.17451017  4143"}}, "geometry": {"type": "Point", "coordinates": [97.99965620762788, -73.00603136895145]}}, {"type": "Feature", "properties": {"norad_id": 66764, "name": "TRANSPORTER-15DC", "group": "last-30-days", "lat": -46.267896866743264, "lon": 80.53853154221723, "alt_km": 520.7056134531804, "timestamp": "2025-12-27T03:58:42.931846+00:00", "meta": {"OBJECT_NAME": "TRANSPORTER-15DC", "OBJECT_ID": "2025-276DC", "EPOCH": "2025-12-26T17:06:29.382048", "MEAN_MOTION": 15.1771923, "ECCENTRICITY": 0.0002447, "INCLINATION": 97.4398, "RA_OF_ASC_NODE": 72.2429, "ARG_OF_PERICENTER": 181.2347, "MEAN_ANOMALY": 178.8881, "EPHEMERIS_TYPE": 0, "CLASSIFICATION_TYPE": "U", "NORAD_CAT_ID": 66764, "ELEMENT_SET_NO": 999, "REV_AT_EPOCH": 424, "BSTAR": 0.00040013, "MEAN_MOTION_DOT": 8.007e-05, "MEAN_MOTION_DDOT": 0}, "tle": {"line1": "1 66764U 25276DC  25360.71284007  .00008007  00000+0  40013-3 0  9991", "line2": "2 66764  97.4398  72.2429 0002447 181.2347 178.8881 15.17719230  4247"}}, "geometry": {"type": "Point", "coordinates": [80.53853154221723, -46.267896866743264]}}, {"type": "Feature", "properties": {"norad_id": 66765, "name": "TRANSPORTER-15DD", "group": "last-30-days", "lat": 39.03692442842169, "lon": 66.64742823872412, "alt_km": 506.0583327848253, "timestamp": "2025-12-27T03:58:42.931856+00:00", "meta": {"OBJECT_NAME": "TRANSPORTER-15DD", "OBJECT_ID": "2025-276DD", "EPOCH": "2025-12-26T16:44:14.643744", "MEAN_MOTION": 15.18831603, "ECCENTRICITY": 0.000196, "INCLINATION": 97.4413, "RA_OF_ASC_NODE": 72.2699, "ARG_OF_PERICENTER": 114.7419, "MEAN_ANOMALY": 245.402, "EPHEMERIS_TYPE": 0, "CLASSIFICATION_TYPE": "U", "NORAD_CAT_ID": 66765, "ELEMENT_SET_NO": 999, "REV_AT_EPOCH": 424, "BSTAR": 0.00069687, "MEAN_MOTION_DOT": 0.00014462, "MEAN_MOTION_DDOT": 0}, "tle": {"line1": "1 66765U 25276DD  25360.69739171  .00014462  00000+0  69687-3 0  9996", "line2": "2 66765  97.4413  72.2699 0001960 114.7419 245.4020 15.18831603  4241"}}, "geometry": {"type": "Point", "coordinates": [66.64742823872412, 39.03692442842169]}}, {"type": "Feature", "properties": {"norad_id": 66766, "name": "TRANSPORTER-15DE", "group": "last-30-days", "lat": 18.902035551132037, "lon": 70.13838510647074, "alt_km": 510.246299975106, "timestamp": "2025-12-27T03:58:42.931867+00:00", "meta": {"OBJECT_NAME": "TRANSPORTER-15DE", "OBJECT_ID": "2025-276DE", "EPOCH": "2025-12-26T15:14:32.983008", "MEAN_MOTION": 15.18463173, "ECCENTRICITY": 0.0001929, "INCLINATION": 97.4355, "RA_OF_ASC_NODE": 72.1797, "ARG_OF_PERICENTER": 87.5181, "MEAN_ANOMALY": 272.6274, "EPHEMERIS_TYPE": 0, "CLASSIFICATION_TYPE": "U", "NORAD_CAT_ID": 66766, "ELEMENT_SET_NO": 999, "REV_AT_EPOCH": 423, "BSTAR": 0.00055338, "MEAN_MOTION_DOT": 0.00011344, "MEAN_MOTION_DDOT": 0}, "tle": {"line1": "1 66766U 25276DE  25360.63510397  .00011344  00000+0  55338-3 0  9992", "line2": "2 66766  97.4355  72.1797 0001929  87.5181 272.6274 15.18463173  4238"}}, "geometry": {"type": "Point", "coordinates": [70.13838510647074, 18.902035551132037]}}, {"type": "Feature", "properties": {"norad_id": 66767, "name": "TRANSPORTER-15DF", "group": "last-30-days", "lat": 13.042317197061367, "lon": 70.96799375752173, "alt_km": 511.55616009002006, "timestamp": "2025-12-27T03:58:42.931875+00:00", "meta": {"OBJECT_NAME": "TRANSPORTER-15DF", "OBJECT_ID": "2025-276DF", "EPOCH": "2025-12-26T18:25:51.242016", "MEAN_MOTION": 15.18364475, "ECCENTRICITY": 0.0002055, "INCLINATION": 97.4364, "RA_OF_ASC_NODE": 72.3107, "ARG_OF_PERICENTER": 86.0552, "MEAN_ANOMALY": 274.0917, "EPHEMERIS_TYPE": 0, "CLASSIFICATION_TYPE": "U", "NORAD_CAT_ID": 66767, "ELEMENT_SET_NO": 999, "REV_AT_EPOCH": 425, "BSTAR": 0.00023021, "MEAN_MOTION_DOT": 4.663e-05, "MEAN_MOTION_DDOT": 0}, "tle": {"line1": "1 66767U 25276DF  25360.76795419  .00004663  00000+0  23021-3 0  9997", "line2": "2 66767  97.4364  72.3107 0002055  86.0552 274.0917 15.18364475  4250"}}, "geometry": {"type": "Point", "coordinates": [70.96799375752173, 13.042317197061367]}}]}